     2.10           N: GPS NAV DATA                         RINEX VERSION / TYPE
Convert v1.8.0                          07-Jun-16 18:53     PGM / RUN BY / DATE 
Ionosphere parameters A0-A3 unknown                         COMMENT             
Ionosphere parameters B0-B3 unknown                         COMMENT             
Delta-UTC unknown                                           COMMENT             
Leap Seconds unknown                                        COMMENT             
                                                            END OF HEADER       
11 16 04 02 14 00 00.0 -.639248639345D-03 -.147792889038D-11  .000000000000D+00
     .200000000000D+01 -.802187500000D+02  .608489631750D-08  .502790769631D+00
    -.401772558689D-05  .162511790404D-01  .612251460552D-05  .515365671730D+04
     .568800000000D+06  .912696123123D-07 -.153251320749D+01  .471249222755D-06
     .895784158263D+00  .223375000000D+03  .151252575276D+01 -.891072831046D-08
    -.340371320689D-09  .100000000000D+01  .189000000000D+04  .000000000000D+00
     .000000000000D+00  .000000000000D+00 -.121071934700D-07  .200000000000D+01
     .561816000000D+06  .000000000000D+00                                      
01 16 04 02 14 00 00.0  .161877833307D-04  .113686837722D-11  .000000000000D+00
     .200000000000D+01 -.786250000000D+02  .441482675240D-08  .111063279415D+01
    -.416301190853D-05  .522371893749D-02  .851973891258D-05  .515365475845D+04
     .568800000000D+06  .335276126862D-07 -.115927061586D+01  .633299350739D-07
     .963820620415D+00  .213562500000D+03  .451747579980D+00 -.814355349740D-08
    -.304298389535D-09  .100000000000D+01  .189000000000D+04  .000000000000D+00
     .000000000000D+00  .000000000000D+00  .512227416039D-08  .200000000000D+01
     .561846000000D+06  .000000000000D+00                                      
24 16 04 02 14 00 00.0 -.149072147906D-04 -.568434188608D-12  .000000000000D+00
     .200000000000D+01 -.765625000000D+01  .486448833975D-08  .131401317635D+01
    -.359490513802D-06  .439065904357D-02  .970438122749D-05  .515362779617D+04
     .568800000000D+06  .782310962677D-07  .195380466463D+01 -.279396772385D-07
     .949819733679D+00  .186000000000D+03  .402101118680D+00 -.823784313923D-08
    -.350014579512D-09  .000000000000D+00  .189000000000D+04  .000000000000D+00
     .000000000000D+00  .000000000000D+00  .232830643654D-08  .200000000000D+01
     .561846000000D+06  .000000000000D+00                                      
18 16 04 02 14 00 00.0  .500416848809D-03  .409272615798D-11  .000000000000D+00
     .200000000000D+01  .126562500000D+02  .499877964781D-08 -.150508821434D+01
     .644475221634D-06  .169363503810D-01  .103693455458D-04  .515367425919D+04
     .568800000000D+06  .150874257088D-06 -.149106127303D+00 -.169500708580D-06
     .925399672279D+00  .157312500000D+03 -.190062092300D+01 -.793961643118D-08
     .371086885830D-09  .000000000000D+00  .189000000000D+04  .000000000000D+00
     .000000000000D+00  .000000000000D+00 -.111758708954D-07  .200000000000D+01
     .561846000000D+06  .000000000000D+00                                      
11 16 04 02 14 00 00.0 -.639248639345D-03 -.147792889038D-11  .000000000000D+00
     .200000000000D+01 -.802187500000D+02  .608489631750D-08  .502790769631D+00
    -.401772558689D-05  .162511790404D-01  .612251460552D-05  .515365671730D+04
     .568800000000D+06  .912696123123D-07 -.153251320749D+01  .471249222755D-06
     .895784158263D+00  .223375000000D+03  .151252575276D+01 -.891072831046D-08
    -.340371320689D-09  .100000000000D+01  .189000000000D+04  .000000000000D+00
     .000000000000D+00  .000000000000D+00 -.121071934700D-07  .200000000000D+01
     .561846000000D+06  .000000000000D+00                                      
08 16 04 02 14 00 00.0 -.298856757581D-04 -.147792889038D-11  .000000000000D+00
     .200000000000D+01 -.164375000000D+02  .478698511143D-08 -.204667680760D+01
    -.750645995140D-06  .182336522266D-02  .305660068989D-05  .515367021751D+04
     .568800000000D+06  .223517417908D-07 -.221962493592D+01 -.968575477600D-07
     .962560519835D+00  .315062500000D+03 -.122919023979D+01 -.843320841984D-08
    -.121790787361D-09  .100000000000D+01  .189000000000D+04  .000000000000D+00
     .000000000000D+00  .000000000000D+00  .465661287308D-08  .200000000000D+01
     .561846000000D+06  .000000000000D+00                                      
